{
  "type": "FeatureCollection",
  "features": [
    {
      "type": "Feature",
      "properties": {
        "norad_id": 66791,
        "name": "STARLINK-35867",
        "group": "last-30-days",
        "lat": 12.972329614442582,
        "lon": 39.087608015369206,
        "alt_km": 331.8746357580676,
        "timestamp": "2025-12-15T19:00:44.077782+00:00",
        "meta_object_name": "STARLINK-35867",
        "meta_object_id": "2025-278A",
        "meta_epoch": "2025-12-14T20:00:06.000192",
        "meta_mean_motion": 15.81610166,
        "meta_eccentricity": 0.00016325,
        "meta_inclination": 42.9969,
        "meta_ra_of_asc_node": 239.2653,
        "meta_arg_of_pericenter": 276.8291,
        "meta_mean_anomaly": 182.6249,
        "meta_ephemeris_type": 0,
        "meta_classification_type": "U",
        "meta_norad_cat_id": 66791,
        "meta_element_set_no": 999,
        "meta_rev_at_epoch": 329,
        "meta_bstar": -0.0068686552,
        "meta_mean_motion_dot": -0.0125483,
        "meta_mean_motion_ddot": 0,
        "tle_line1": "1 66791U 25278A   25348.83340278 -.01254830  00000+0 -68687-2 0  9991",
        "tle_line2": "2 66791  42.9969 239.2653 0001632 276.8291 182.6249 15.81610166  3298"
      },
      "geometry": {
        "type": "Point",
        "coordinates": [
          39.087608015369206,
          12.972329614442582
        ]
      }
    },
    {
      "type": "Feature",
      "properties": {
        "norad_id": 66792,
        "name": "STARLINK-35990",
        "group": "last-30-days",
        "lat": 11.727002841968357,
        "lon": 40.52399822063169,
        "alt_km": 331.9305021851915,
        "timestamp": "2025-12-15T19:00:44.077793+00:00",
        "meta_object_name": "STARLINK-35990",
        "meta_object_id": "2025-278B",
        "meta_epoch": "2025-12-14T20:00:06.000192",
        "meta_mean_motion": 15.81628454,
        "meta_eccentricity": 0.0001696,
        "meta_inclination": 42.9969,
        "meta_ra_of_asc_node": 239.2607,
        "meta_arg_of_pericenter": 274.0087,
        "meta_mean_anomaly": 187.2753,
        "meta_ephemeris_type": 0,
        "meta_classification_type": "U",
        "meta_norad_cat_id": 66792,
        "meta_element_set_no": 999,
        "meta_rev_at_epoch": 329,
        "meta_bstar": -0.0068832014,
        "meta_mean_motion_dot": -0.01258173,
        "meta_mean_motion_ddot": 0,
        "tle_line1": "1 66792U 25278B   25348.83340278 -.01258173  00000+0 -68832-2 0  9998",
        "tle_line2": "2 66792  42.9969 239.2607 0001696 274.0087 187.2753 15.81628454  3291"
      },
      "geometry": {
        "type": "Point",
        "coordinates": [
          40.52399822063169,
          11.727002841968357
        ]
      }
    },
    {
      "type": "Feature",
      "properties": {
        "norad_id": 66793,
        "name": "STARLINK-36051",
        "group": "last-30-days",
        "lat": 8.630134788840722,
        "lon": 44.01051081733636,
        "alt_km": 332.4239908253594,
        "timestamp": "2025-12-15T19:00:44.077803+00:00",
        "meta_object_name": "STARLINK-36051",
        "meta_object_id": "2025-278C",
        "meta_epoch": "2025-12-14T20:00:06.000192",
        "meta_mean_motion": 15.81547197,
        "meta_eccentricity": 0.00016278,
        "meta_inclination": 42.9971,
        "meta_ra_of_asc_node": 239.2481,
        "meta_arg_of_pericenter": 267.7944,
        "meta_mean_anomaly": 198.4843,
        "meta_ephemeris_type": 0,
        "meta_classification_type": "U",
        "meta_norad_cat_id": 66793,
        "meta_element_set_no": 999,
        "meta_rev_at_epoch": 319,
        "meta_bstar": -0.0070416026,
        "meta_mean_motion_dot": -0.01279296,
        "meta_mean_motion_ddot": 0,
        "tle_line1": "1 66793U 25278C   25348.83340278 -.01279296  00000+0 -70416-2 0  9999",
        "tle_line2": "2 66793  42.9971 239.2481 0001627 267.7944 198.4843 15.81547197  3197"
      },
      "geometry": {
        "type": "Point",
        "coordinates": [
          44.01051081733636,
          8.630134788840722
        ]
      }
    },
    {
      "type": "Feature",
      "properties": {
        "norad_id": 66794,
        "name": "STARLINK-36062",
        "group": "last-30-days",
        "lat": 10.067864467138344,
        "lon": 42.40535910214622,
        "alt_km": 332.21862149930803,
        "timestamp": "2025-12-15T19:00:44.077820+00:00",
        "meta_object_name": "STARLINK-36062",
        "meta_object_id": "2025-278D",
        "meta_epoch": "2025-12-14T20:00:06.000192",
        "meta_mean_motion": 15.81564378,
        "meta_eccentricity": 0.00015914,
        "meta_inclination": 42.9971,
        "meta_ra_of_asc_node": 239.2536,
        "meta_arg_of_pericenter": 270.353,
        "meta_mean_anomaly": 193.6786,
        "meta_ephemeris_type": 0,
        "meta_classification_type": "U",
        "meta_norad_cat_id": 66794,
        "meta_element_set_no": 999,
        "meta_rev_at_epoch": 329,
        "meta_bstar": -0.006965512,
        "meta_mean_motion_dot": -0.0126799,
        "meta_mean_motion_ddot": 0,
        "tle_line1": "1 66794U 25278D   25348.83340278 -.01267990  00000+0 -69655-2 0  9991",
        "tle_line2": "2 66794  42.9971 239.2536 0001591 270.3530 193.6786 15.81564378  3294"
      },
      "geometry": {
        "type": "Point",
        "coordinates": [
          42.40535910214622,
          10.067864467138344
        ]
      }
    },
    {
      "type": "Feature",
      "properties": {
        "norad_id": 66795,
        "name": "STARLINK-36047",
        "group": "last-30-days",
        "lat": 7.023892759246435,
        "lon": 45.78026544320425,
        "alt_km": 332.73445708710005,
        "timestamp": "2025-12-15T19:00:44.078038+00:00",
        "meta_object_name": "STARLINK-36047",
        "meta_object_id": "2025-278E",
        "meta_epoch": "2025-12-14T20:00:06.000192",
        "meta_mean_motion": 15.81492168,
        "meta_eccentricity": 0.00016155,
        "meta_inclination": 42.9971,
        "meta_ra_of_asc_node": 239.2412,
        "meta_arg_of_pericenter": 266.6555,
        "meta_mean_anomaly": 202.21,
        "meta_ephemeris_type": 0,
        "meta_classification_type": "U",
        "meta_norad_cat_id": 66795,
        "meta_element_set_no": 999,
        "meta_rev_at_epoch": 319,
        "meta_bstar": -0.0070826671,
        "meta_mean_motion_dot": -0.01282923,
        "meta_mean_motion_ddot": 0,
        "tle_line1": "1 66795U 25278E   25348.83340278 -.01282923  00000+0 -70827-2 0  9998",
        "tle_line2": "2 66795  42.9971 239.2412 0001615 266.6555 202.2100 15.81492168  3193"
      },
      "geometry": {
        "type": "Point",
        "coordinates": [
          45.78026544320425,
          7.023892759246435
        ]
      }
    },
    {
      "type": "Feature",
      "properties": {
        "norad_id": 66796,
        "name": "STARLINK-35964",
        "group": "last-30-days",
        "lat": -39.98937077954606,
        "lon": 116.46419904344945,
        "alt_km": 309.9193936401871,
        "timestamp": "2025-12-15T19:00:44.078052+00:00",
        "meta_object_name": "STARLINK-35964",
        "meta_object_id": "2025-278F",
        "meta_epoch": "2025-12-14T20:00:06.000192",
        "meta_mean_motion": 15.92132257,
        "meta_eccentricity": 0.00013754,
        "meta_inclination": 42.9938,
        "meta_ra_of_asc_node": 238.2067,
        "meta_arg_of_pericenter": 263.4662,
        "meta_mean_anomaly": 252.6414,
        "meta_ephemeris_type": 0,
        "meta_classification_type": "U",
        "meta_norad_cat_id": 66796,
        "meta_element_set_no": 999,
        "meta_rev_at_epoch": 313,
        "meta_bstar": -0.0073372193,
        "meta_mean_motion_dot": -0.02517482,
        "meta_mean_motion_ddot": 0.0016754531,
        "tle_line1": "1 66796U 25278F   25348.83340278 -.02517482  16755-2 -73372-2 0  9996",
        "tle_line2": "2 66796  42.9938 238.2067 0001375 263.4662 252.6414 15.92132257  3132"
      },
      "geometry": {
        "type": "Point",
        "coordinates": [
          116.46419904344945,
          -39.98937077954606
        ]
      }
    },
    {
      "type": "Feature",
      "properties": {
        "norad_id": 66797,
        "name": "STARLINK-36099",
        "group": "last-30-days",
        "lat": 3.80132370982872,
        "lon": 49.27789587968335,
        "alt_km": 333.7147561515294,
        "timestamp": "2025-12-15T19:00:44.078062+00:00",
        "meta_object_name": "STARLINK-36099",
        "meta_object_id": "2025-278G",
        "meta_epoch": "2025-12-14T20:00:06.000192",
        "meta_mean_motion": 15.81386097,
        "meta_eccentricity": 0.00015908,
        "meta_inclination": 42.9969,
        "meta_ra_of_asc_node": 239.2283,
        "meta_arg_of_pericenter": 273.7344,
        "meta_mean_anomaly": 200.3265,
        "meta_ephemeris_type": 0,
        "meta_classification_type": "U",
        "meta_norad_cat_id": 66797,
        "meta_element_set_no": 999,
        "meta_rev_at_epoch": 335,
        "meta_bstar": -0.0072418139,
        "meta_mean_motion_dot": -0.0130248,
        "meta_mean_motion_ddot": 0,
        "tle_line1": "1 66797U 25278G   25348.83340278 -.01302480  00000+0 -72418-2 0  9999",
        "tle_line2": "2 66797  42.9969 239.2283 0001590 273.7344 200.3265 15.81386097  3357"
      },
      "geometry": {
        "type": "Point",
        "coordinates": [
          49.27789587968335,
          3.80132370982872
        ]
      }
    }
  ]
}